{"type": "FeatureCollection", "features": [ {"type": "Feature", "properties": {"norad_id": 64202, "name": "GPS BIII-8  (PRN 21)", "group": "gnss", "lat": -54.88098048620025, "lon": -43.971141416899904, "alt_km": 20176.172441449966, "timestamp": "2025-12-16T23:36:36.440427+00:00", "meta": {"OBJECT_NAME": "GPS BIII-8  (PRN 21)", "OBJECT_ID": "2025-116A", "EPOCH": "2025-12-14T02:46:13.653120", "MEAN_MOTION": 2.00558299, "ECCENTRICITY": 0.00056153, "INCLINATION": 55.1067, "RA_OF_ASC_NODE": 38.5851, "ARG_OF_PERICENTER": 308.147, "MEAN_ANOMALY": 55.2369, "EPHEMERIS_TYPE": 0, "CLASSIFICATION_TYPE": "U", "NORAD_CAT_ID": 64202, "ELEMENT_SET_NO": 999, "REV_AT_EPOCH": 416, "BSTAR": 0, "MEAN_MOTION_DOT": -9.6e-07, "MEAN_MOTION_DDOT": 0}, "tle": {"line1": "1 64202U 25116A   25348.11543580 -.00000096  00000+0  00000+0 0  9992", "line2": "2 64202  55.1067  38.5851 0005615 308.1470  55.2369  2.00558299  4161"}}, "geometry": {"type": "Point", "coordinates": [-43.971141416899904, -54.88098048620025]}}, {"type": "Feature", "properties": {"norad_id": 65590, "name": "COSMOS 2596 (708K)", "group": "gnss", "lat": 46.78571551566101, "lon": -8.528476488290991, "alt_km": 19135.174475607633, "timestamp": "2025-12-16T23:36:36.440438+00:00", "meta": {"OBJECT_NAME": "COSMOS 2596 (708K)", "OBJECT_ID": "2025-206B", "EPOCH": "2025-12-16T02:29:28.552416", "MEAN_MOTION": 2.13100546, "ECCENTRICITY": 0.00140382, "INCLINATION": 64.7427, "RA_OF_ASC_NODE": 321.3574, "ARG_OF_PERICENTER": 306.6506, "MEAN_ANOMALY": 151.812, "EPHEMERIS_TYPE": 0, "CLASSIFICATION_TYPE": "U", "NORAD_CAT_ID": 65590, "ELEMENT_SET_NO": 999, "REV_AT_EPOCH": 201, "BSTAR": 0, "MEAN_MOTION_DOT": -6.9e-07, "MEAN_MOTION_DDOT": 0}, "tle": {"line1": "1 65590U 25206B   25350.10380269 -.00000069  00000+0  00000+0 0  9998", "line2": "2 65590  64.7427 321.3574 0014038 306.6506 151.8120  2.13100546  2017"}}, "geometry": {"type": "Point", "coordinates": [-8.528476488290991, 46.78571551566101]}}]}